#dP2019  1 12  0  0  0.00000000      96 __u+U ITR00 FIT  IAC
## 2035 518400.00000000   900.00000000 58495 0.0000000000000
+   92   C01C02C03C04C05C06C07C08C09C10C11C12C13C14E01E02E03
+        E04E05E07E08E09E11E12E13E14E15E18E19E21E24E25E26E27
+        E30E31E33E36G01G02G03G04G05G06G07G08G09G10G11G12G13
+        G14G15G16G17G18G19G20G21G22G23G24G25G26G28G29G30G31
+        G32R01R02R03R04R05R07R08R09R10R11R13R14R15R16R17R18
+        R19R20R21R22R23R24R26  0  0  0  0  0  0  0  0  0  0
++         0  0  0  0  0  0  0  0  0  0  0  0  0  0  0  0  0
++         0  0  0  0  0  0  0  0  0  0  0  0  0  0  0  0  0
++         0  0  0  0  0  0  0  0  0  0  0  0  0  0  0  0  0
++         0  0  0  0  0  0  0  0  0  0  0  0  0  0  0  0  0
++         0  0  0  0  0  0  0  0  0  0  0  0  0  0  0  0  0
++         0  0  0  0  0  0  0  0  0  0  0  0  0  0  0  0  0
%c M  cc GPS ccc cccc cccc cccc cccc ccccc ccccc ccccc ccccc
%c cc cc ccc ccc cccc cccc cccc cccc ccccc ccccc ccccc ccccc
%f  0.0000000  0.000000000  0.00000000000  0.000000000000000
%f  0.0000000  0.000000000  0.00000000000  0.000000000000000
%i    0    0    0    0      0      0      0      0         0
%i    0    0    0    0      0      0      0      0         0
/*                                                          
/*   RSA / INFORMATION & ANALYSIS CENTER (IAC) OF MCC       
/*   ULTRA-RAPID DETERMINATION                              
/* PCV:IGS14_2035 OL/AL:FES2004  NONE     YN ORB:CoN CLK:CoN
*  2019 01 12  4 45  0.00000000
PC01 -32348.876269  27043.268676   -901.365250     77.523355
PC02   4389.836749  41905.815633    -78.478951   -238.875443
PC03 -14707.063807  39518.270106   -564.256159   -130.087660
PC04 -39663.462934  14312.787604   -608.472303   -217.835242
PC05  21951.183677  36003.948995    149.130667    -53.197316
PC06 -17948.554308  21412.626167  31768.167051    263.185809
PC07 -21442.771716  36557.876850  -1478.911892    204.585023
PC08  -4321.441418  30845.748095 -28176.408452     86.938331
PC09  -1562.739561  24629.488022  34377.309173    442.611907
PC10 -10010.709247  38300.651622 -14891.748691   -400.556434
PC11  24485.784217   6327.309490  11785.084184    -88.038046
PC12  13889.603050  19587.774664 -14073.369375    339.910356
PC13   4268.738185  37193.767732 -19082.545038   -479.961677
PC14  20342.770738   3907.530646  18776.612548    700.662634
PE01 -18450.389953  17686.173854  14930.358997   -518.951550
PE02  18442.765753 -17739.907188 -14888.258048     42.974801
PE03  26303.765061  -9674.036286  -9511.889093   -121.221796
PE04  -9325.912862  17011.540431  22353.714312   -198.276062
PE05  27994.589540   3386.563274   8996.873621    126.532243
PE07 -13299.653555 -14415.659983 -22171.501997   -110.985658
PE08   9101.093901 -16971.337429 -22480.030479   6425.108421
PE09  13389.377141  14172.482273  22267.579251   6560.801897
PE11  16050.903591  24703.917596  -2948.479786   5719.611237
PE12    216.908604  22151.513054 -19628.647376   5923.582906
PE13 -16072.588907 -24658.810900   3136.505903    381.626651
PE14  -3238.209909  20651.201715 -25053.787693   6461.174814
PE15   -685.210853 -22293.963032  19473.659285    923.197006
PE18   1365.772087 -15051.630581  17767.702795   5612.711147
PE19 -27264.260736   8532.144857   7735.665193     -9.189920
PE21 -16223.460089  -3138.206803  24557.978641   -514.009925
PE24   4765.762274  21485.961575 -19791.118866   6290.420376
PE25  16207.284142   3175.011375 -24558.090561   1926.394970
PE26 -22087.297626 -12835.647641 -14948.259657   5029.505381
PE27  -4435.077894 -21853.834072  19474.350298    551.450066
PE30   9788.192265 -27729.889332   3442.086376   5195.375803
PE31  -9945.374809  27720.722789  -2962.010822    934.818988
PE33 -15146.244908   6883.153239 -24468.679050 999999.999999
PE36  22121.438738  12579.099472  15131.043625    760.664486
PG01  14725.985661  -2282.930441  21826.988171   -143.941898
PG02 -14312.009323 -19610.614719 -10401.912785   -110.824892
PG03  21606.286917 -10705.593072  11016.708747    176.613516
PG04      0.000000      0.000000      0.000000     79.711538
PG05 -13852.004460  -7728.780830 -21442.814474      0.776037
PG06  -6807.778642 -25661.074581    168.036973    298.578475
PG07   8462.493951 -17486.567819 -17656.632131     53.296920
PG08  26010.149109   5733.904179   1247.414548   -128.769350
PG09  15441.414775 -10134.056610 -19139.250698    472.751841
PG10  -6924.485972  21153.219623  14394.441952    137.030573
PG11  19179.811235   1381.843067  17695.652226   -676.500849
PG12 -21656.762517   7343.361162  13154.113726    277.057432
PG13 -22656.923500 -12961.946778  -5122.228538    -78.603211
PG14  11187.733908  16959.424196  17503.269817    -93.289576
PG15 -26452.802804  -2091.159125   3301.440270   -332.591505
PG16  13026.534893   8046.518381 -21920.833497    -12.207589
PG17  -1162.611036 -15667.475831  21841.769210     -5.933924
PG18  16531.755619   8832.882179  18395.897681     14.924942
PG19 -11125.091121 -16521.084403  17224.636535   -364.253836
PG20 -13178.902741  22440.136388   4825.287077    521.027319
PG21  -4851.741257  20599.099450 -15297.262345   -270.666742
PG22  20319.451423  -4032.186288  16829.636808   -620.754627
PG23  23606.251038  -3002.279631 -11902.913137   -200.789196
PG24 -16551.135154  -2490.253606  20540.954178    -60.682071
PG25 -20181.009552  16648.208880   3512.538050   -704.677948
PG26   5148.542039  15839.276429 -20664.614815     93.992971
PG28   9882.323596 -20596.383415  14239.670746    761.658154
PG29 -18728.408746   6154.024068 -17817.234890    295.180346
PG30   1268.476517 -24861.932384  -8993.544546    -34.512930
PG31      0.000000      0.000000      0.000000 999999.999999
PG32   4362.157794  16195.379139  20656.878788   -278.618100
PR01  -5149.797962  12710.981928  21505.270982     37.803004
PR02  15547.845186   4847.476526  19682.282197    348.958841
PR03  24419.860659  -5062.198561   5500.983411    154.276228
PR04  18727.656966 -12184.062918 -12315.812207    290.979917
PR05   2949.784344 -11977.341363 -22327.340430     19.765631
PR07 -24426.085725   5320.150394  -4945.774279    -55.678239
PR08 -19201.039434  12019.049721  11763.954971     19.589048
PR09  -7573.394811 -12528.872314  20885.325103     48.549210
PR10 -11614.439384   4718.851256  22207.872381     39.457956
PR11  -9869.533901  21051.069410  10552.994852    -53.235175
PR13   7017.494916  13526.723949 -20472.597028    -18.902038
PR14  11804.803021  -4681.524061 -22109.174960     34.851454
PR15  10027.270858 -20532.209796 -11327.071480     99.259290
PR16   2186.921267 -24798.159048   5824.153233    -11.662687
PR17  18577.681379   7094.406491  15968.200994    195.475196
PR18   8302.579170  -6689.722909  23195.120579     29.752347
PR19  -6281.454377 -17136.268071  17828.327888    -62.211081
PR20 -18175.239636 -17853.422751    607.375537   -365.333310
PR21 -18382.134834  -6771.246733 -16345.186079    -25.096151
PR22  -6117.738811   8628.547330 -23204.270601    -64.313932
PR23  10366.362418  18401.808240 -14304.769013    202.688818
PR24  18978.745342  17031.016079    884.235607   -175.948458
PR26 -17818.704119 -18080.484838   2649.537431     15.554724
EOF
